[{"OBJECT_NAME":"SHIJIAN-30C (SJ-30C)","OBJECT_ID":"2025-266C","EPOCH":"2026-03-09T22:18:08.951328","MEAN_MOTION":15.15375128,"ECCENTRICITY":0.00100456,"INCLINATION":51.7965,"RA_OF_ASC_NODE":284.3719,"ARG_OF_PERICENTER":284.8645,"MEAN_ANOMALY":75.1218,"EPHEMERIS_TYPE":0,"CLASSIFICATION_TYPE":"U","NORAD_CAT_ID":66547,"ELEMENT_SET_NO":999,"REV_AT_EPOCH":1680,"BSTAR":0.00059078911,"MEAN_MOTION_DOT":0.00011009,"MEAN_MOTION_DDOT":0},{"OBJECT_NAME":"HAWK-13C","OBJECT_ID":"2026-004AG","EPOCH":"2026-03-09T21:38:59.886528","MEAN_MOTION":15.18214635,"ECCENTRICITY":0.00046883,"INCLINATION":97.4593,"RA_OF_ASC_NODE":69.4519,"ARG_OF_PERICENTER":342.652,"MEAN_ANOMALY":17.4553,"EPHEMERIS_TYPE":0,"CLASSIFICATION_TYPE":"U","NORAD_CAT_ID":67393,"ELEMENT_SET_NO":999,"REV_AT_EPOCH":869,"BSTAR":0.00032608519,"MEAN_MOTION_DOT":6.606e-5,"MEAN_MOTION_DDOT":0}]
